{"type": "FeatureCollection", "features": [ {"type": "Feature", "properties": {"norad_id": 33825, "name": "COSMOS 2251 DEB", "group": "cosmos-2251-debris", "lat": -56.39545729369188, "lon": -154.12566147200155, "alt_km": 661.3681502511645, "timestamp": "2025-12-26T21:25:53.402160+00:00", "meta": {"OBJECT_NAME": "COSMOS 2251 DEB", "OBJECT_ID": "1993-036BS", "EPOCH": "2025-12-26T07:19:03.758304", "MEAN_MOTION": 14.69903105, "ECCENTRICITY": 0.00851298, "INCLINATION": 73.9853, "RA_OF_ASC_NODE": 1.4091, "ARG_OF_PERICENTER": 325.3514, "MEAN_ANOMALY": 45.0063, "EPHEMERIS_TYPE": 0, "CLASSIFICATION_TYPE": "U", "NORAD_CAT_ID": 33825, "ELEMENT_SET_NO": 999, "REV_AT_EPOCH": 89079, "BSTAR": 0.0011586634, "MEAN_MOTION_DOT": 7.305e-05, "MEAN_MOTION_DDOT": 0}, "tle": {"line1": "1 33825U 93036BS  25360.30490461  .00007305  00000+0  11587-2 0  9993", "line2": "2 33825  73.9853   1.4091 0085129 325.3514  45.0063 14.69903105890790"}}, "geometry": {"type": "Point", "coordinates": [-154.12566147200155, -56.39545729369188]}}, {"type": "Feature", "properties": {"norad_id": 33826, "name": "COSMOS 2251 DEB", "group": "cosmos-2251-debris", "lat": -64.78367390549815, "lon": -14.087674688746537, "alt_km": 766.4071101101745, "timestamp": "2025-12-26T21:25:53.402171+00:00", "meta": {"OBJECT_NAME": "COSMOS 2251 DEB", "OBJECT_ID": "1993-036BT", "EPOCH": "2025-12-26T10:43:14.236320", "MEAN_MOTION": 14.51778923, "ECCENTRICITY": 0.00825233, "INCLINATION": 74.0641, "RA_OF_ASC_NODE": 24.1054, "ARG_OF_PERICENTER": 63.8003, "MEAN_ANOMALY": 55.2102, "EPHEMERIS_TYPE": 0, "CLASSIFICATION_TYPE": "U", "NORAD_CAT_ID": 33826, "ELEMENT_SET_NO": 999, "REV_AT_EPOCH": 87968, "BSTAR": 0.00046964874, "MEAN_MOTION_DOT": 1.945e-05, "MEAN_MOTION_DDOT": 0}, "tle": {"line1": "1 33826U 93036BT  25360.44669255  .00001945  00000+0  46965-3 0  9991", "line2": "2 33826  74.0641  24.1054 0082523  63.8003  55.2102 14.51778923879682"}}, "geometry": {"type": "Point", "coordinates": [-14.087674688746537, -64.78367390549815]}}, {"type": "Feature", "properties": {"norad_id": 33828, "name": "COSMOS 2251 DEB", "group": "cosmos-2251-debris", "lat": 9.318580967748817, "lon": 29.080637934601086, "alt_km": 753.3462567609804, "timestamp": "2025-12-26T21:25:53.402187+00:00", "meta": {"OBJECT_NAME": "COSMOS 2251 DEB", "OBJECT_ID": "1993-036BV", "EPOCH": "2025-12-26T14:05:42.200736", "MEAN_MOTION": 14.44371496, "ECCENTRICITY": 0.00295169, "INCLINATION": 74.0448, "RA_OF_ASC_NODE": 212.3396, "ARG_OF_PERICENTER": 283.1452, "MEAN_ANOMALY": 98.5213, "EPHEMERIS_TYPE": 0, "CLASSIFICATION_TYPE": "U", "NORAD_CAT_ID": 33828, "ELEMENT_SET_NO": 999, "REV_AT_EPOCH": 88513, "BSTAR": 0.00040390391, "MEAN_MOTION_DOT": 1.372e-05, "MEAN_MOTION_DDOT": 0}, "tle": {"line1": "1 33828U 93036BV  25360.58729399  .00001372  00000+0  40390-3 0  9994", "line2": "2 33828  74.0448 212.3396 0029516 283.1452  98.5213 14.44371496885133"}}, "geometry": {"type": "Point", "coordinates": [29.080637934601086, 9.318580967748817]}}, {"type": "Feature", "properties": {"norad_id": 33830, "name": "COSMOS 2251 DEB", "group": "cosmos-2251-debris", "lat": -73.42616456550155, "lon": 96.80208449608187, "alt_km": 627.9946442009068, "timestamp": "2025-12-26T21:25:53.402197+00:00", "meta": {"OBJECT_NAME": "COSMOS 2251 DEB", "OBJECT_ID": "1993-036BX", "EPOCH": "2025-12-26T14:01:07.175712", "MEAN_MOTION": 14.77041414, "ECCENTRICITY": 0.0042813, "INCLINATION": 74.0309, "RA_OF_ASC_NODE": 203.2198, "ARG_OF_PERICENTER": 320.4911, "MEAN_ANOMALY": 103.7612, "EPHEMERIS_TYPE": 0, "CLASSIFICATION_TYPE": "U", "NORAD_CAT_ID": 33830, "ELEMENT_SET_NO": 999, "REV_AT_EPOCH": 89676, "BSTAR": 0.00075843179, "MEAN_MOTION_DOT": 5.402e-05, "MEAN_MOTION_DDOT": 0}, "tle": {"line1": "1 33830U 93036BX  25360.58411083  .00005402  00000+0  75843-3 0  9994", "line2": "2 33830  74.0309 203.2198 0042813 320.4911 103.7612 14.77041414896764"}}, "geometry": {"type": "Point", "coordinates": [96.80208449608187, -73.42616456550155]}}, {"type": "Feature", "properties": {"norad_id": 33832, "name": "COSMOS 2251 DEB", "group": "cosmos-2251-debris", "lat": -28.028330116821646, "lon": 11.721966278455637, "alt_km": 679.0687273558942, "timestamp": "2025-12-26T21:25:53.402207+00:00", "meta": {"OBJECT_NAME": "COSMOS 2251 DEB", "OBJECT_ID": "1993-036BZ", "EPOCH": "2025-12-26T14:12:53.742816", "MEAN_MOTION": 14.6081322, "ECCENTRICITY": 0.00239762, "INCLINATION": 74.0533, "RA_OF_ASC_NODE": 183.5405, "ARG_OF_PERICENTER": 211.9767, "MEAN_ANOMALY": 216.5241, "EPHEMERIS_TYPE": 0, "CLASSIFICATION_TYPE": "U", "NORAD_CAT_ID": 33832, "ELEMENT_SET_NO": 999, "REV_AT_EPOCH": 88627, "BSTAR": 0.0015182413, "MEAN_MOTION_DOT": 7.425e-05, "MEAN_MOTION_DDOT": 0}, "tle": {"line1": "1 33832U 93036BZ  25360.59228869  .00007425  00000+0  15182-2 0  9991", "line2": "2 33832  74.0533 183.5405 0023976 211.9767 216.5241 14.60813220886278"}}, "geometry": {"type": "Point", "coordinates": [11.721966278455637, -28.028330116821646]}}, {"type": "Feature", "properties": {"norad_id": 33835, "name": "COSMOS 2251 DEB", "group": "cosmos-2251-debris", "lat": 51.58662433600419, "lon": -127.09311690077709, "alt_km": 642.4779959321595, "timestamp": "2025-12-26T21:25:53.402217+00:00", "meta": {"OBJECT_NAME": "COSMOS 2251 DEB", "OBJECT_ID": "1993-036CC", "EPOCH": "2025-12-26T06:20:30.703200", "MEAN_MOTION": 14.62376099, "ECCENTRICITY": 0.0053663, "INCLINATION": 74.0572, "RA_OF_ASC_NODE": 75.2392, "ARG_OF_PERICENTER": 124.7442, "MEAN_ANOMALY": 291.9423, "EPHEMERIS_TYPE": 0, "CLASSIFICATION_TYPE": "U", "NORAD_CAT_ID": 33835, "ELEMENT_SET_NO": 999, "REV_AT_EPOCH": 88987, "BSTAR": 0.00088089199, "MEAN_MOTION_DOT": 4.519e-05, "MEAN_MOTION_DDOT": 0}, "tle": {"line1": "1 33835U 93036CC  25360.26424425  .00004519  00000+0  88089-3 0  9992", "line2": "2 33835  74.0572  75.2392 0053663 124.7442 291.9423 14.62376099889871"}}, "geometry": {"type": "Point", "coordinates": [-127.09311690077709, 51.58662433600419]}}, {"type": "Feature", "properties": {"norad_id": 33836, "name": "COSMOS 2251 DEB", "group": "cosmos-2251-debris", "lat": -42.21911313331821, "lon": -144.07626925830218, "alt_km": 644.8219193728364, "timestamp": "2025-12-26T21:25:53.402228+00:00", "meta": {"OBJECT_NAME": "COSMOS 2251 DEB", "OBJECT_ID": "1993-036CD", "EPOCH": "2025-12-26T15:16:49.328256", "MEAN_MOTION": 14.79849474, "ECCENTRICITY": 0.00229399, "INCLINATION": 73.9962, "RA_OF_ASC_NODE": 231.5244, "ARG_OF_PERICENTER": 79.4405, "MEAN_ANOMALY": 311.6709, "EPHEMERIS_TYPE": 0, "CLASSIFICATION_TYPE": "U", "NORAD_CAT_ID": 33836, "ELEMENT_SET_NO": 999, "REV_AT_EPOCH": 64294, "BSTAR": 0.0010825745, "MEAN_MOTION_DOT": 8.173e-05, "MEAN_MOTION_DDOT": 0}, "tle": {"line1": "1 33836U 93036CD  25360.63668204  .00008173  00000+0  10826-2 0  9992", "line2": "2 33836  73.9962 231.5244 0022939  79.4405 311.6709 14.79849474642945"}}, "geometry": {"type": "Point", "coordinates": [-144.07626925830218, -42.21911313331821]}}, {"type": "Feature", "properties": {"norad_id": 33837, "name": "COSMOS 2251 DEB", "group": "cosmos-2251-debris", "lat": -69.89879342791893, "lon": -99.47545581146295, "alt_km": 705.0457148097821, "timestamp": "2025-12-26T21:25:53.402238+00:00", "meta": {"OBJECT_NAME": "COSMOS 2251 DEB", "OBJECT_ID": "1993-036CE", "EPOCH": "2025-12-26T11:58:15.849120", "MEAN_MOTION": 14.50729517, "ECCENTRICITY": 0.00358633, "INCLINATION": 74.0121, "RA_OF_ASC_NODE": 29.6929, "ARG_OF_PERICENTER": 249.2411, "MEAN_ANOMALY": 110.4906, "EPHEMERIS_TYPE": 0, "CLASSIFICATION_TYPE": "U", "NORAD_CAT_ID": 33837, "ELEMENT_SET_NO": 999, "REV_AT_EPOCH": 88995, "BSTAR": 0.00025961932, "MEAN_MOTION_DOT": 1.001e-05, "MEAN_MOTION_DDOT": 0}, "tle": {"line1": "1 33837U 93036CE  25360.49879455  .00001001  00000+0  25962-3 0  9990", "line2": "2 33837  74.0121  29.6929 0035863 249.2411 110.4906 14.50729517889957"}}, "geometry": {"type": "Point", "coordinates": [-99.47545581146295, -69.89879342791893]}}, {"type": "Feature", "properties": {"norad_id": 33838, "name": "COSMOS 2251 DEB", "group": "cosmos-2251-debris", "lat": 11.015769518240056, "lon": 126.5023479854318, "alt_km": 744.0111902626722, "timestamp": "2025-12-26T21:25:53.402248+00:00", "meta": {"OBJECT_NAME": "COSMOS 2251 DEB", "OBJECT_ID": "1993-036CF", "EPOCH": "2025-12-26T14:49:42.246912", "MEAN_MOTION": 14.48406251, "ECCENTRICITY": 0.00274704, "INCLINATION": 74.0367, "RA_OF_ASC_NODE": 123.8232, "ARG_OF_PERICENTER": 243.8592, "MEAN_ANOMALY": 133.4565, "EPHEMERIS_TYPE": 0, "CLASSIFICATION_TYPE": "U", "NORAD_CAT_ID": 33838, "ELEMENT_SET_NO": 999, "REV_AT_EPOCH": 88770, "BSTAR": 0.00047400821, "MEAN_MOTION_DOT": 1.756e-05, "MEAN_MOTION_DDOT": 0}, "tle": {"line1": "1 33838U 93036CF  25360.61785008  .00001756  00000+0  47401-3 0  9994", "line2": "2 33838  74.0367 123.8232 0027470 243.8592 133.4565 14.48406251887700"}}, "geometry": {"type": "Point", "coordinates": [126.5023479854318, 11.015769518240056]}}, {"type": "Feature", "properties": {"norad_id": 33839, "name": "COSMOS 2251 DEB", "group": "cosmos-2251-debris", "lat": 34.21229032694115, "lon": -169.49368170699117, "alt_km": 694.2086086327117, "timestamp": "2025-12-26T21:25:53.402258+00:00", "meta": {"OBJECT_NAME": "COSMOS 2251 DEB", "OBJECT_ID": "1993-036CG", "EPOCH": "2025-12-25T12:37:08.860800", "MEAN_MOTION": 14.64450648, "ECCENTRICITY": 0.0085374, "INCLINATION": 74.0373, "RA_OF_ASC_NODE": 181.9107, "ARG_OF_PERICENTER": 291.0826, "MEAN_ANOMALY": 99.0176, "EPHEMERIS_TYPE": 0, "CLASSIFICATION_TYPE": "U", "NORAD_CAT_ID": 33839, "ELEMENT_SET_NO": 999, "REV_AT_EPOCH": 89767, "BSTAR": 0.00022045, "MEAN_MOTION_DOT": 1.196e-05, "MEAN_MOTION_DDOT": 0}, "tle": {"line1": "1 33839U 93036CG  25359.52579700  .00001196  00000+0  22045-3 0  9998", "line2": "2 33839  74.0373 181.9107 0085374 291.0826  99.0176 14.64450648897675"}}, "geometry": {"type": "Point", "coordinates": [-169.49368170699117, 34.21229032694115]}}]}